ENMAP                   
1 52159U 22033C   26194.48721795  .00000296  00000+0  51537-4 0  9998
2 52159  97.9796 276.3628 0001330  81.0009 279.1350 14.74940765230537
ARCSAT-1                
1 52161U 22033E   26194.46322617  .00008125  00000+0  12599-3 0  9992
2 52161  97.2762 287.1377 0006280 101.9063 258.2896 15.54255745239783
GLOBAL-18               
1 52196U 22034B   26194.23024429  .00014709  00000+0  29288-3 0  9994
2 52196  52.9804 132.0865 0004350  18.3325 341.7837 15.47165251240996
GAOFEN-3 03             
1 52200U 22035A   26194.52392284  .00000105  00000+0  45144-4 0  9995
2 52200  98.4064 202.7219 0001754  88.4885 271.6506 14.42218434224641
DAQI-1                  
1 52257U 22039A   26194.50413679  .00000027  00000+0  15788-4 0  9995
2 52257  98.1480 132.8127 0003805 152.0007 208.1397 14.57691649225773
BRO-6                   
1 52422U 22047AE  26194.51683150  .00026123  00000+0  42769-3 0  9995
2 52422  97.3396 286.1118 0002904 319.9099  40.1939 15.52475354235238
JILIN-1 GAOFEN 3D27     
1 52444U 22048B   26194.52199109  .00123242  00000+0  58362-3 0  9993
2 52444  97.5729 310.9916 0005113 248.1634 111.9091 15.82635175233639
JILIN-1 GAOFEN 3D28     
1 52445U 22048C   26194.45780168  .00157325  00000+0  58867-3 0  9996
2 52445  97.5667 311.2097 0004940 245.7878 114.2877 15.87493736233688
VIGORIDE-3              
1 52760U 22057AE  26194.42148674  .00003080  00000+0  11719-3 0  9996
2 52760  97.6634 335.1000 0009030  40.4787 319.7122 15.27538676229166
ION SCV-006             
1 52761U 22057AF  26194.38550108  .00007547  00000+0  15648-3 0  9998
2 52761  97.6123 344.2794 0016949  24.0028 336.2007 15.45894120230161
SHERPA-AC1              
1 52763U 22057AH  26194.37833299  .00004359  00000+0  12432-3 0  9990
2 52763  97.6710 344.7069 0007371  10.1295 350.0096 15.36615440229724
OMNI-L2                 
1 52771U 22057AR  26194.12742183  .00000686  00000+0  93656-4 0  9990
2 52771  97.4703 254.7417 0005509 228.5407 131.5334 14.81435238224233
STEP CUBE LAB-II        
1 52897U 22065D   26194.46152855  .00000400  00000+0  86728-4 0  9992
2 52897  98.2253 338.2872 0007475 308.8511  51.2023 14.63341572215348
RANDEV                  
1 52898U 22065E   26194.45564731  .00000482  00000+0  10174-3 0  9993
2 52898  98.2239 338.6447 0006814 309.5820  50.4780 14.63730571215096
SNUGLITE-II             
1 52899U 22065F   26194.33783903  .00000457  00000+0  95704-4 0  9990
2 52899  98.2232 339.1269 0006311 307.6333  52.4296 14.64392439214820
MIMAN                   
1 52900U 22065G   26194.40027620  .00000259  00000+0  61347-4 0  9994
2 52900  98.2292 336.7554 0006498 310.3694  49.6939 14.61870703214279
STARLINK-4362           
1 53043U 22077A   26194.45021139  .00000432  00000+0  33850-4 0  9991
2 53043  97.2851  11.9970 0001235  96.3386 263.7982 15.05658675219830
LARES-2                 
1 53105U 22080A   26192.27283510 -.00000016  00000+0  00000+0 0  9990
2 53105  70.1562 297.0691 0005170 331.4390  28.5953  6.38965058 93203
GREENCUBE (IO-117)      
1 53109U 22080E   26193.70867104 -.00000003  00000+0  00000+0 0  9996
2 53109  70.1415 289.3709 0009030 284.1311  75.8345  6.42583319 93700
STARLINK-4410           
1 53204U 22084R   26194.50001156 -.01314257  00000+0 -31501-1 0  9995
2 53204  97.6012 256.5098 0001667 115.4846 234.3326 15.44470417  5831
COSMOS 2558             
1 53323U 22089A   26194.46143892  .00101407  00000+0  51205-3 0  9994
2 53323  97.2250 299.7107 0003876 230.3799 129.7128 15.81313535221971
TECMS                   
1 53346U 22090A   26194.53302427  .00002043  00000+0  94518-4 0  9991
2 53346  97.3130 261.8950 0005557  89.5554 270.6318 15.21226663218816
DONGPO 02               
1 53452U 22098J   26194.56505522  .00102139  00000+0  52818-3 0  9994
2 53452  97.5548 328.1690 0004576 218.8257 141.2682 15.80785273218958
DONGPO 01               
1 53453U 22098K   26194.02711856  .00103528  00000+0  61457-3 0  9997
2 53453  97.5609 328.0252 0002908 210.3911 149.7186 15.77718735218824
STARLINK-4400           
1 53468U 22099D   26194.29653615  .00000008  00000+0  44511-5 0  9994
2 53468  97.2850 311.9311 0001590 121.9426 238.1957 15.05657060214870
STARLINK-4621           
1 53676U 22105AE  26193.56827016  .00000293  00000+0  24194-4 0  9990
2 53676  97.2834  71.2607 0001693  93.1582 266.9839 15.05656300212023
SHERPA-LTC2             
1 53754U 22107BG  26194.16212606  .00002244  00000+0  12670-3 0  9992
2 53754  53.2373 110.3577 0392824 299.0132  57.2011 14.69908951206362
CENTISPACE-1 S3         
1 53757U 22108A   26194.47293993  .00000125  00000+0  63284-4 0  9992
2 53757  53.5339 306.5641 0010712  60.6826 299.5218 14.61282136205378
CENTISPACE-1 S4         
1 53758U 22108B   26194.44490005  .00000216  00000+0  80585-4 0  9997
2 53758  53.5313 304.0728 0009989  50.0932 310.0920 14.61970882205400
BLUEWALKER-3            
1 53807U 22111AL  26194.49042534  .00003917  00000+0  11145-3 0  9997
2 53807  53.2291 270.4558 0004570 258.6402 101.4090 15.38596562214250
