OBJECT_NAME,OBJECT_ID,EPOCH,MEAN_MOTION,ECCENTRICITY,INCLINATION,RA_OF_ASC_NODE,ARG_OF_PERICENTER,MEAN_ANOMALY,EPHEMERIS_TYPE,CLASSIFICATION_TYPE,NORAD_CAT_ID,ELEMENT_SET_NO,REV_AT_EPOCH,BSTAR,MEAN_MOTION_DOT,MEAN_MOTION_DDOT
ENMAP,2022-033C,2026-07-13T11:41:35.630880,14.74940765,.000133,97.9796,276.3628,81.0009,279.1350,0,U,52159,999,23053,.51537E-4,.296E-5,0
ARCSAT-1,2022-033E,2026-07-13T11:07:02.741088,15.54255745,.000628,97.2762,287.1377,101.9063,258.2896,0,U,52161,999,23978,.12599E-3,.8125E-4,0
GLOBAL-18,2022-034B,2026-07-13T05:31:33.106656,15.47165251,.000435,52.9804,132.0865,18.3325,341.7837,0,U,52196,999,24099,.29288E-3,.14709E-3,0
GAOFEN-3 03,2022-035A,2026-07-13T12:34:26.933376,14.42218434,.0001754,98.4064,202.7219,88.4885,271.6506,0,U,52200,999,22464,.45144E-4,.105E-5,0
DAQI-1,2022-039A,2026-07-13T12:05:57.418656,14.57691649,.0003805,98.1480,132.8127,152.0007,208.1397,0,U,52257,999,22577,.15788E-4,.27E-6,0
BRO-6,2022-047AE,2026-07-13T12:24:14.241600,15.52475354,.0002904,97.3396,286.1118,319.9099,40.1939,0,U,52422,999,23523,.42769E-3,.26123E-3,0
JILIN-1 GAOFEN 3D27,2022-048B,2026-07-13T12:31:40.030176,15.82635175,.0005113,97.5729,310.9916,248.1634,111.9091,0,U,52444,999,23363,.58362E-3,.123242E-2,0
JILIN-1 GAOFEN 3D28,2022-048C,2026-07-13T10:59:14.065152,15.87493736,.000494,97.5667,311.2097,245.7878,114.2877,0,U,52445,999,23368,.58867E-3,.157325E-2,0
VIGORIDE-3,2022-057AE,2026-07-13T10:06:56.454336,15.27538676,.000903,97.6634,335.1000,40.4787,319.7122,0,U,52760,999,22916,.11719E-3,.308E-4,0
ION SCV-006,2022-057AF,2026-07-13T09:15:07.293312,15.45894120,.0016949,97.6123,344.2794,24.0028,336.2007,0,U,52761,999,23016,.15648E-3,.7547E-4,0
SHERPA-AC1,2022-057AH,2026-07-13T09:04:47.970336,15.36615440,.0007371,97.6710,344.7069,10.1295,350.0096,0,U,52763,999,22972,.12432E-3,.4359E-4,0
OMNI-L2,2022-057AR,2026-07-13T03:03:29.246112,14.81435238,.00055094,97.4703,254.7417,228.5407,131.5334,0,U,52771,999,22423,.93655518E-4,.686E-5,0
STEP CUBE LAB-II,2022-065D,2026-07-13T11:04:36.066720,14.63341572,.0007475,98.2253,338.2872,308.8511,51.2023,0,U,52897,999,21534,.86728E-4,.4E-5,0
RANDEV,2022-065E,2026-07-13T10:56:07.927584,14.63730571,.0006814,98.2239,338.6447,309.5820,50.4780,0,U,52898,999,21509,.10174E-3,.482E-5,0
SNUGLITE-II,2022-065F,2026-07-13T08:06:29.292192,14.64392439,.0006311,98.2232,339.1269,307.6333,52.4296,0,U,52899,999,21482,.95704E-4,.457E-5,0
MIMAN,2022-065G,2026-07-13T09:36:23.863680,14.61870703,.0006498,98.2292,336.7554,310.3694,49.6939,0,U,52900,999,21427,.61347E-4,.259E-5,0
STARLINK-4362,2022-077A,2026-07-13T10:48:18.264096,15.05658675,.0001235,97.2851,11.9970,96.3386,263.7982,0,U,53043,999,21983,.3385E-4,.432E-5,0
LARES-2,2022-080A,2026-07-11T06:32:52.952640,6.38965058,.00051703,70.1562,297.0691,331.4390,28.5953,0,U,53105,999,9320,0,-.16E-6,0
GREENCUBE (IO-117),2022-080E,2026-07-12T17:00:29.177856,6.42583319,.00090302,70.1415,289.3709,284.1311,75.8345,0,U,53109,999,9370,0,-.3E-7,0
STARLINK-4410,2022-084R,2026-07-13T12:00:00.998784,15.44470417,.0001667,97.6012,256.5098,115.4846,234.3326,0,U,53204,999,583,-.31501E-1,-.1314257E-1,0
COSMOS 2558,2022-089A,2026-07-13T11:04:28.322688,15.81313535,.0003876,97.2250,299.7107,230.3799,129.7128,0,U,53323,999,22197,.51205E-3,.101407E-2,0
TECMS,2022-090A,2026-07-13T12:47:33.296928,15.21226663,.0005557,97.3130,261.8950,89.5554,270.6318,0,U,53346,999,21881,.94518E-4,.2043E-4,0
DONGPO 02,2022-098J,2026-07-13T13:33:40.771008,15.80785273,.0004576,97.5548,328.1690,218.8257,141.2682,0,U,53452,999,21895,.52818E-3,.102139E-2,0
DONGPO 01,2022-098K,2026-07-13T00:39:03.043584,15.77718735,.0002908,97.5609,328.0252,210.3911,149.7186,0,U,53453,999,21882,.6145731E-3,.103528E-2,0
STARLINK-4400,2022-099D,2026-07-13T07:07:00.723360,15.05657060,.000159,97.2850,311.9311,121.9426,238.1957,0,U,53468,999,21487,.44511E-5,.8E-7,0
STARLINK-4621,2022-105AE,2026-07-12T13:38:18.541824,15.05656300,.0001693,97.2834,71.2607,93.1582,266.9839,0,U,53676,999,21202,.24194E-4,.293E-5,0
SHERPA-LTC2,2022-107BG,2026-07-13T03:53:27.691584,14.69908951,.03928247,53.2373,110.3577,299.0132,57.2011,0,U,53754,999,20636,.12669626E-3,.2244E-4,0
CENTISPACE-1 S3,2022-108A,2026-07-13T11:21:02.009952,14.61282136,.0010712,53.5339,306.5641,60.6826,299.5218,0,U,53757,999,20537,.63284E-4,.125E-5,0
CENTISPACE-1 S4,2022-108B,2026-07-13T10:40:39.364320,14.61970882,.0009989,53.5313,304.0728,50.0932,310.0920,0,U,53758,999,20540,.80585E-4,.216E-5,0
BLUEWALKER-3,2022-111AL,2026-07-13T11:46:12.749376,15.38596562,.000457,53.2291,270.4558,258.6402,101.4090,0,U,53807,999,21425,.11145E-3,.3917E-4,0
